[{"OBJECT_NAME":"GENMAT-1","OBJECT_ID":"2023-174W","EPOCH":"2026-03-09T18:03:23.351040","MEAN_MOTION":15.32594666,"ECCENTRICITY":0.00074416,"INCLINATION":97.3728,"RA_OF_ASC_NODE":146.8236,"ARG_OF_PERICENTER":169.2515,"MEAN_ANOMALY":190.8888,"EPHEMERIS_TYPE":0,"CLASSIFICATION_TYPE":"U","NORAD_CAT_ID":58276,"ELEMENT_SET_NO":999,"REV_AT_EPOCH":12973,"BSTAR":0.00042157222,"MEAN_MOTION_DOT":0.0001321,"MEAN_MOTION_DDOT":0},{"OBJECT_NAME":"STARLINK-32501","OBJECT_ID":"2024-204S","EPOCH":"2026-03-09T10:09:35.483904","MEAN_MOTION":15.30189185,"ECCENTRICITY":0.00011604,"INCLINATION":53.1613,"RA_OF_ASC_NODE":128.5371,"ARG_OF_PERICENTER":85.412,"MEAN_ANOMALY":274.7014,"EPHEMERIS_TYPE":0,"CLASSIFICATION_TYPE":"U","NORAD_CAT_ID":61890,"ELEMENT_SET_NO":999,"REV_AT_EPOCH":7505,"BSTAR":3.0193009e-5,"MEAN_MOTION_DOT":5.35e-6,"MEAN_MOTION_DDOT":0}]
